UNKNOWN                 
1 85100U          26056.43672749  .00000310  00000+0  10514-3 0  9992
2 85100  74.0435  84.6837 0013850 292.1935 133.8839 14.40783972644108
UNKNOWN                 
1 85106U          26057.26552829  .00000600  00000+0  70206-3 0  9992
2 85106 100.0525 166.8395 0010420 178.8967 211.9837 13.73014065613434
UNKNOWN                 
1 85151U          26053.88717051  .00026671  00000+0  33260-2 0  9990
2 85151  98.4005 286.2981 0007818 282.8932  77.1406 14.82363651490201
UNKNOWN                 
1 85210U          26056.63273443  .00000203  00000+0  23255-3 0  9991
2 85210  99.8603 204.6839 0217584 123.0867 302.0698 13.71661560612428
UNKNOWN                 
1 85217U          26057.04266356  .00002087  00000+0  55743-3 0  9998
2 85217  98.0236 151.5198 0205985 260.5240  97.2614 14.37569429638670
UNKNOWN                 
1 85237U          26054.35491965  .00013478  00000+0  26977-2 0  9999
2 85237  65.5338  24.2147 0516167 354.4749   5.0755 14.01835433618525
UNKNOWN                 
1 85238U          26057.59754882  .00000037  00000+0  66009-4 0  9998
2 85238  99.0675 349.6321 0063440 356.5025 179.1574 13.88358512621361
UNKNOWN                 
1 85246U          26056.93251965  .00001357  00000+0  49205-3 0  9992
2 85246  97.9901  58.3882 0223976  82.2001 280.4542 14.21733756633756
UNKNOWN                 
1 85373U          26057.36975788  .00002090  00000+0  14327-2 0  9998
2 85373 100.4247 108.9334 0050489  40.6958  24.1000 14.00372056622715
UNKNOWN                 
1 85425U          26033.71181694  .00000000  00000+0  00000+0 0  9993
2 85425  51.2937 156.4139 6775828 239.1756 342.8295  3.07857636    06
UNKNOWN                 
1 87014U          26056.88123245  .00002428  00000+0  37233-2 0  9997
2 87014 100.4829  30.3380 0052349  53.2293 335.9472 13.52272530601077
UNKNOWN                 
1 87029U          26056.04083260  .00000958  00000+0  60630-3 0  9997
2 87029  98.7453  93.6492 0081636  42.6311 318.1154 14.04679370603438
